OBJECT_NAME,OBJECT_ID,EPOCH,MEAN_MOTION,ECCENTRICITY,INCLINATION,RA_OF_ASC_NODE,ARG_OF_PERICENTER,MEAN_ANOMALY,EPHEMERIS_TYPE,CLASSIFICATION_TYPE,NORAD_CAT_ID,ELEMENT_SET_NO,REV_AT_EPOCH,BSTAR,MEAN_MOTION_DOT,MEAN_MOTION_DDOT
LEMUR-2-CELIJO-SB-PK,2025-276DW,2026-06-10T10:22:18.428736,14.99890406,.00088899,97.5278,232.4306,148.5978,211.5778,0,U,66781,999,2161,.4401127E-3,.5406E-4,0
LEMUR-2-FINNIAN,2025-276DX,2026-06-09T22:39:27.152064,15.00285972,.00086731,97.5265,232.1669,110.6610,249.5545,0,U,66782,999,1891,.51645436E-3,.642E-4,0
LEMUR-2-STARLIGHT,2025-276DY,2026-06-10T03:51:50.393088,14.98970826,.0015382,97.5278,232.0392,147.8197,212.3968,0,U,66783,999,2914,.43186E-3,.5185E-4,0
LEMUR-2-TARTIFLETTE,2025-276DZ,2026-06-10T10:14:20.546016,14.99000511,.00140251,97.5281,232.3012,153.1363,207.0590,0,U,66784,999,2918,.4911153E-3,.5907E-4,0
LEMUR-2-VUKASIN,2025-276EA,2026-06-10T03:49:26.508576,15.00290014,.0006306,97.5312,232.3227,140.7004,219.4679,0,U,66785,999,2909,.44733E-3,.5551E-4,0
LEMUR-2-HOTSPUR-TOM,2025-276EB,2026-06-09T22:49:57.700992,14.98871778,.00153985,97.5259,231.8257,149.5889,210.6230,0,U,66786,999,2904,.55095517E-3,.6615E-4,0
LEMUR-2-MYRA,2025-276EC,2026-06-10T10:58:03.417600,15.00151363,.00157895,97.5221,232.5594,163.7951,196.3781,0,U,66787,999,2920,.49332168E-3,.6119E-4,0
LEMUR-2 FIKRETDENGIZ,2026-004A,2026-06-10T11:28:48.891360,14.88277183,.00095489,97.8012,160.1398,152.1568,208.0161,0,U,67363,999,2228,.43115703E-3,.3933E-4,0
LEMUR-2-MARIO-SOUSA,2026-004C,2026-06-10T12:43:14.198880,14.88459890,.00091363,97.7988,160.1869,152.7779,207.3918,0,U,67365,999,2230,.43286276E-3,.3967E-4,0
LEMUR-2-SONNENBLUME,2026-004E,2026-06-10T12:39:42.273504,14.88281453,.00086236,97.7982,160.1717,154.5626,205.6017,0,U,67367,999,2230,.27168676E-3,.2458E-4,0
LEMUR-2-WOBLER,2026-004F,2026-06-10T14:08:23.404128,14.88471804,.00090634,97.8035,160.3478,144.3103,215.8721,0,U,67368,999,2231,.36040617E-3,.3294E-4,0
LEMUR-2-GRAM-E-SUE,2026-004H,2026-06-10T07:27:27.316512,14.88440652,.00077162,97.7967,159.9731,155.5650,204.5934,0,U,67370,999,2227,.19926936E-3,.1795E-4,0
LEMUR-2-KATIE,2026-004AA,2026-06-10T13:46:22.849248,14.90007807,.00047229,97.8034,160.6697,106.5243,253.6494,0,U,67387,999,2232,.33444753E-3,.3171E-4,0
LEMUR-2-HCS-BAZUS,2026-004AB,2026-06-10T13:45:06.165792,14.90007782,.00042985,97.8021,160.6507,102.1655,258.0044,0,U,67388,999,2232,.40466381E-3,.3849E-4,0
