0 LEMUR-2-CELIJO-SB-PK
1 66781U 25276DW  26161.43215774  .00005406  00000-0  44011-3 0  9997
2 66781  97.5278 232.4306 0008890 148.5978 211.5778 14.99890406 21616
0 LEMUR-2-FINNIAN
1 66782U 25276DX  26160.94406426  .00006420  00000-0  51645-3 0  9997
2 66782  97.5265 232.1669 0008673 110.6610 249.5545 15.00285972 18915
0 LEMUR-2-STARLIGHT
1 66783U 25276DY  26161.16099992  .00005185  00000-0  43186-3 0  9997
2 66783  97.5278 232.0392 0015382 147.8197 212.3968 14.98970826 29148
0 LEMUR-2-TARTIFLETTE
1 66784U 25276DZ  26161.42662669  .00005907  00000-0  49112-3 0  9991
2 66784  97.5281 232.3012 0014025 153.1363 207.0590 14.99000511 29185
0 LEMUR-2-VUKASIN
1 66785U 25276EA  26161.15933459  .00005551  00000-0  44733-3 0  9999
2 66785  97.5312 232.3227 0006306 140.7004 219.4679 15.00290014 29093
0 LEMUR-2-HOTSPUR-TOM
1 66786U 25276EB  26160.95136228  .00006615  00000-0  55096-3 0  9992
2 66786  97.5259 231.8257 0015398 149.5889 210.6230 14.98871778 29049
0 LEMUR-2-MYRA
1 66787U 25276EC  26161.45698400  .00006119  00000-0  49332-3 0  9999
2 66787  97.5221 232.5594 0015789 163.7951 196.3781 15.00151363 29207
0 LEMUR-2 FIKRETDENGIZ
1 67363U 26004A   26161.47834365  .00003933  00000-0  43116-3 0  9999
2 67363  97.8012 160.1398 0009549 152.1568 208.0161 14.88277183 22288
0 LEMUR-2 MARIO-SOUSA
1 67365U 26004C   26161.53002545  .00003967  00000-0  43286-3 0  9990
2 67365  97.7988 160.1869 0009136 152.7779 207.3918 14.88459890 22308
0 LEMUR-2 SONNENBLUME
1 67367U 26004E   26161.52757261  .00002458  00000-0  27169-3 0  9999
2 67367  97.7982 160.1717 0008624 154.5626 205.6017 14.88281453 22307
0 LEMUR-2 WOBLER
1 67368U 26004F   26161.58915977  .00003294  00000-0  36041-3 0  9994
2 67368  97.8035 160.3478 0009063 144.3103 215.8721 14.88471804 22316
0 LEMUR-2 GRAM-E-SUE
1 67370U 26004H   26161.31073283  .00001795  00000-0  19927-3 0  9991
2 67370  97.7967 159.9731 0007716 155.5650 204.5934 14.88440652 22275
0 LEMUR-2 KATIE
1 67387U 26004AA  26161.57387557  .00003171  00000-0  33445-3 0  9990
2 67387  97.8034 160.6697 0004723 106.5243 253.6494 14.90007807 22324
0 LEMUR-2 HCS-BAZUS
1 67388U 26004AB  26161.57298803  .00003849  00000-0  40466-3 0  9999
2 67388  97.8021 160.6507 0004299 102.1655 258.0044 14.90007782 22320
